NORAD_CAT_ID,OBJECT_NAME,OBJECT_TYPE,EPOCH,MEAN_MOTION,ECCENTRICITY,INCLINATION,RA_OF_ASC_NODE,ARG_OF_PERICENTER,MEAN_ANOMALY,BSTAR,MEAN_MOTION_DOT,MEAN_MOTION_DDOT,TLE_LINE0,TLE_LINE1,TLE_LINE2,SEMIMAJOR_AXIS,PERIOD,APOGEE,PERIGEE,DECAYED
51131.0,STARLINK-3388,PAYLOAD,2023-04-15 03:53:52,15.08854373,0.0001135,53.2162,15.5187,80.0637,280.0484,0.00028393,4.236e-05,0.0,0 STARLINK-3388,1 51131U 22005AD  23105.16241593  .00004236  00000-0  28393-3 0  9995,2 51131  53.2162  15.5187 0001135  80.0637 280.0484 15.08854373 68771,6917.836,95.437,540.487,538.916,0.0
51131.0,STARLINK-3388,PAYLOAD,2023-04-15 21:23:07,15.08842842,0.0001282,53.2168,12.2455,87.4551,272.6588,8.1546e-05,1.01e-05,0.0,0 STARLINK-3388,1 51131U 22005AD  23105.89105987  .00001010  00000-0  81546-4 0  9998,2 51131  53.2168  12.2455 0001282  87.4551 272.6588 15.08842842 70007,6917.872,95.437,540.624,538.85,0.0
51131.0,STARLINK-3388,PAYLOAD,2023-04-16 03:44:39,15.08847619,0.0001178,53.2176,11.0589,71.9235,288.1885,0.00026266,3.896e-05,0.0,0 STARLINK-3388,1 51131U 22005AD  23106.15601779  .00003896  00000-0  26266-3 0  9999,2 51131  53.2176  11.0589 0001178  71.9235 288.1885 15.08847619 68929,6917.857,95.437,540.537,538.907,0.0
51131.0,STARLINK-3388,PAYLOAD,2023-04-16 21:13:55,15.08834265,0.0001161,53.2181,7.7869,63.3907,296.7204,0.00022808,3.343e-05,0.0,0 STARLINK-3388,1 51131U 22005AD  23106.88466470  .00003343  00000-0  22808-3 0  9991,2 51131  53.2181   7.7869 0001161  63.3907 296.7204 15.08834265 69037,6917.898,95.438,540.566,538.96,0.0
51131.0,STARLINK-3388,PAYLOAD,2023-04-17 02:00:04,15.08847207,0.0001058,53.2174,6.8966,87.0426,273.0687,0.00064701,0.00010026,0.0,0 STARLINK-3388,1 51131U 22005AD  23107.08338137  .00010026  00000-0  64701-3 0  9996,2 51131  53.2174   6.8966 0001058  87.0426 273.0687 15.08847207 70182,6917.858,95.437,540.455,538.991,0.0
51131.0,STARLINK-3388,PAYLOAD,2023-04-17 16:18:32,15.08836186,0.0001482,53.2182,4.2198,85.2057,274.9105,0.0001786,2.555e-05,0.0,0 STARLINK-3388,1 51131U 22005AD  23107.67954713  .00002555  00000-0  17860-3 0  9997,2 51131  53.2182   4.2198 0001482  85.2057 274.9105 15.08836186 70270,6917.892,95.438,540.782,538.732,0.0
51131.0,STARLINK-3388,PAYLOAD,2023-04-17 21:04:42,15.08836444,0.0001479,53.2178,3.3282,83.3899,276.7261,0.00061363,9.49e-05,0.0,0 STARLINK-3388,1 51131U 22005AD  23107.87826913  .00009490  00000-0  61363-3 0  9991,2 51131  53.2178   3.3282 0001479  83.3899 276.7261 15.08836444 69186,6917.891,95.438,540.779,538.733,0.0
51131.0,STARLINK-3388,PAYLOAD,2023-04-18 01:50:51,15.08848627,0.0001285,53.2177,2.4363,96.0444,264.0695,0.0011631,0.00018276,0.0,0 STARLINK-3388,1 51131U 22005AD  23108.07698791  .00018276  00000-0  11631-2 0  9999,2 51131  53.2177   2.4363 0001285  96.0444 264.0695 15.08848627 69218,6917.854,95.437,540.608,538.83,0.0
51131.0,STARLINK-3388,PAYLOAD,2023-04-19 01:41:38,15.08848173,0.000118,53.2168,357.976,86.712,273.4008,0.00063344,9.81e-05,0.0,0 STARLINK-3388,1 51131U 22005AD  23109.07058906  .00009810  00000-0  63344-3 0  9991,2 51131  53.2168 357.9760 0001180  86.7120 273.4008 15.08848173 70487,6917.855,95.437,540.537,538.904,0.0
51131.0,STARLINK-3388,PAYLOAD,2023-04-20 01:32:25,15.08858348,0.0001335,53.2162,353.5143,90.3486,269.7659,0.00066818,0.00010367,0.0,0 STARLINK-3388,1 51131U 22005AD  23110.06418254  .00010367  00000-0  66818-3 0  9996,2 51131  53.2162 353.5143 0001335  90.3486 269.7659 15.08858348 70638,6917.824,95.436,540.613,538.766,0.0
51131.0,STARLINK-3388,PAYLOAD,2023-04-20 22:12:26,15.0884022,0.0001651,53.2159,349.6515,80.9757,279.1422,0.00014521,2.024e-05,0.0,0 STARLINK-3388,1 51131U 22005AD  23110.92530948  .00002024  00000-0  14521-3 0  9991,2 51131  53.2159 349.6515 0001651  80.9757 279.1422 15.08840220 69642,6917.88,95.438,540.887,538.603,0.0
51131.0,STARLINK-3388,PAYLOAD,2023-04-20 23:47:49,15.08837495,0.0001335,53.2156,349.3539,77.3087,282.8054,0.00014719,2.055e-05,0.0,0 STARLINK-3388,1 51131U 22005AD  23110.99155046  .00002055  00000-0  14719-3 0  9993,2 51131  53.2156 349.3539 0001335  77.3087 282.8054 15.08837495 70775,6917.888,95.438,540.677,538.83,0.0
51131.0,STARLINK-3388,PAYLOAD,2023-04-21 09:20:08,15.08840602,0.0001225,53.2163,347.5693,77.9692,282.1437,0.00032959,4.962e-05,0.0,0 STARLINK-3388,1 51131U 22005AD  23111.38899127  .00004962  00000-0  32959-3 0  9997,2 51131  53.2163 347.5693 0001225  77.9692 282.1437 15.08840602 69714,6917.879,95.438,540.591,538.896,0.0
51131.0,STARLINK-3388,PAYLOAD,2023-04-21 22:03:13,15.08855762,0.0001366,53.2165,345.1893,86.0965,274.0183,0.00076642,0.00011936,0.0,0 STARLINK-3388,1 51131U 22005AD  23111.91890825  .00011936  00000-0  76642-3 0  9998,2 51131  53.2165 345.1893 0001366  86.0965 274.0183 15.08855762 69791,6917.832,95.437,540.642,538.752,0.0
51131.0,STARLINK-3388,PAYLOAD,2023-04-22 01:13:59,15.08860714,0.000138,53.2165,344.5946,85.1558,274.9592,0.00085504,0.00013354,0.0,0 STARLINK-3388,1 51131U 22005AD  23112.05138651  .00013354  00000-0  85504-3 0  9999,2 51131  53.2165 344.5946 0001380  85.1558 274.9592 15.08860714 69816,6917.817,95.436,540.637,538.727,0.0
51131.0,STARLINK-3388,PAYLOAD,2023-04-22 15:32:27,15.08849735,9.43e-05,53.2162,341.9182,84.2967,275.8132,0.00031509,4.732e-05,0.0,0 STARLINK-3388,1 51131U 22005AD  23112.64754603  .00004732  00000-0  31509-3 0  9991,2 51131  53.2162 341.9182 0000943  84.2967 275.8132 15.08849735 69904,6917.851,95.437,540.368,539.063,0.0
51131.0,STARLINK-3388,PAYLOAD,2023-04-22 21:54:00,15.0885433,0.00011,53.2164,340.7282,103.2059,256.9056,0.00047579,7.295e-05,0.0,0 STARLINK-3388,1 51131U 22005AD  23112.91250358  .00007295  00000-0  47579-3 0  9990,2 51131  53.2164 340.7282 0001100 103.2059 256.9056 15.08854330 69940,6917.837,95.437,540.463,538.941,0.0
51131.0,STARLINK-3388,PAYLOAD,2023-04-23 15:23:15,15.08841394,0.0001445,53.217,337.4582,95.3776,264.7381,0.00036336,5.5e-05,0.0,0 STARLINK-3388,1 51131U 22005AD  23113.64114851  .00005500  00000-0  36336-3 0  9994,2 51131  53.2170 337.4582 0001445  95.3776 264.7381 15.08841394 71174,6917.876,95.437,540.741,538.741,0.0
51131.0,STARLINK-3388,PAYLOAD,2023-04-24 15:14:01,15.08879193,0.0001272,53.2162,332.997,98.7898,261.3239,0.0010423,0.00016357,0.0,0 STARLINK-3388,1 51131U 22005AD  23114.63473640  .00016357  00000-0  10423-2 0  9998,2 51131  53.2162 332.9970 0001272  98.7898 261.3239 15.08879193 70202,6917.761,95.435,540.506,538.746,0.0
51131.0,STARLINK-3388,PAYLOAD,2023-04-24 23:10:56,15.08888198,0.0001197,53.2162,331.5104,97.5609,262.5519,0.0012032,0.00018938,0.0,0 STARLINK-3388,1 51131U 22005AD  23114.96592948  .00018938  00000-0  12032-2 0  9992,2 51131  53.2162 331.5104 0001197  97.5609 262.5519 15.08888198 70253,6917.733,95.435,540.426,538.77,0.0
51131.0,STARLINK-3388,PAYLOAD,2023-04-26 08:34:05,15.08812309,9.63e-05,53.2157,325.2638,54.5389,305.5693,0.0016862,0.00026629,0.0,0 STARLINK-3388,1 51131U 22005AD  23116.35701275  .00026629  00000-0  16862-2 0  9993,2 51131  53.2157 325.2638 0000963  54.5389 305.5693 15.08812309 70462,6917.965,95.439,540.496,539.164,0.0
51131.0,STARLINK-3388,PAYLOAD,2023-04-26 16:31:02,15.08833444,0.0001702,53.2145,323.7798,53.699,306.4159,0.0011972,0.00018813,0.0,0 STARLINK-3388,1 51131U 22005AD  23116.68821795  .00018813  00000-0  11972-2 0  9992,2 51131  53.2145 323.7798 0001702  53.6990 306.4159 15.08833444 70515,6917.9,95.438,540.943,538.588,0.0
51131.0,STARLINK-3388,PAYLOAD,2023-04-27 13:11:01,15.08861569,0.0002068,53.2158,319.9169,23.1391,336.9694,0.00098098,0.00015368,0.0,0 STARLINK-3388,1 51131U 22005AD  23117.54932823  .00015368  00000-0  98098-3 0  9990,2 51131  53.2158 319.9169 0002068  23.1391 336.9694 15.08861569 70646,6917.814,95.436,541.11,538.249,0.0
51131.0,STARLINK-3388,PAYLOAD,2023-04-27 16:21:47,15.08866064,0.0001613,53.216,319.3207,23.1301,336.9763,0.00068182,0.00010588,0.0,0 STARLINK-3388,1 51131U 22005AD  23117.68180336  .00010588  00000-0  68182-3 0  9999,2 51131  53.2160 319.3207 0001613  23.1301 336.9763 15.08866064 71780,6917.801,95.436,540.782,538.55,0.0
51131.0,STARLINK-3388,PAYLOAD,2023-04-28 06:40:15,15.0886288,0.0001582,53.2165,316.646,29.2117,330.8964,0.00022414,3.283e-05,0.0,0 STARLINK-3388,1 51131U 22005AD  23118.27795500  .00003283  00000-0  22414-3 0  9992,2 51131  53.2165 316.6460 0001582  29.2117 330.8964 15.08862880 71871,6917.81,95.436,540.77,538.581,0.0
51131.0,STARLINK-3388,PAYLOAD,2023-04-28 19:23:20,15.08851858,0.0001042,53.2159,314.2639,45.405,314.7027,3.1431e-05,2.13e-06,0.0,0 STARLINK-3388,1 51131U 22005AD  23118.80787305  .00000213  00000-0  31431-4 0  9995,2 51131  53.2159 314.2639 0001042  45.4050 314.7027 15.08851858 71956,6917.844,95.437,540.43,538.988,0.0
51131.0,STARLINK-3388,PAYLOAD,2023-04-29 12:52:34,15.08846646,0.0001375,53.2153,310.9931,56.9224,303.19,0.00022995,3.374e-05,0.0,0 STARLINK-3388,1 51131U 22005AD  23119.53651419  .00003374  00000-0  22995-3 0  9997,2 51131  53.2153 310.9931 0001375  56.9224 303.1900 15.08846646 72061,6917.86,95.437,540.676,538.774,0.0
51131.0,STARLINK-3388,PAYLOAD,2023-04-30 12:43:22,15.08840123,8.26e-05,53.2161,306.5306,63.9552,296.1526,0.00012937,1.772e-05,0.0,0 STARLINK-3388,1 51131U 22005AD  23120.53011585  .00001772  00000-0  12937-3 0  9998,2 51131  53.2161 306.5306 0000826  63.9552 296.1526 15.08840123 72215,6917.88,95.438,540.316,539.174,0.0
51131.0,STARLINK-3388,PAYLOAD,2023-05-01 12:34:09,15.08826813,9.05e-05,53.2152,302.0683,90.8451,269.2645,0.0002917,4.356e-05,0.0,0 STARLINK-3388,1 51131U 22005AD  23121.52372420  .00004356  00000-0  29170-3 0  9994,2 51131  53.2152 302.0683 0000905  90.8451 269.2645 15.08826813 72368,6917.921,95.438,540.412,539.16,0.0
51131.0,STARLINK-3388,PAYLOAD,2023-05-01 18:55:41,15.08840898,9.35e-05,53.2162,300.8787,87.1554,272.9545,5.3162e-05,5.58e-06,0.0,0 STARLINK-3388,1 51131U 22005AD  23121.78867718  .00000558  00000-0  53162-4 0  9990,2 51131  53.2162 300.8787 0000935  87.1554 272.9545 15.08840898 72400,6917.878,95.437,540.389,539.096,0.0
